[{"OBJECT_NAME":"STARLINK-5043","OBJECT_ID":"2022-119J","EPOCH":"2026-03-09T22:50:17.699136","MEAN_MOTION":15.08840442,"ECCENTRICITY":0.00014045,"INCLINATION":53.2197,"RA_OF_ASC_NODE":322.987,"ARG_OF_PERICENTER":100.7149,"MEAN_ANOMALY":259.4002,"EPHEMERIS_TYPE":0,"CLASSIFICATION_TYPE":"U","NORAD_CAT_ID":53894,"ELEMENT_SET_NO":999,"REV_AT_EPOCH":19172,"BSTAR":3.3499785e-5,"MEAN_MOTION_DOT":2.45e-6,"MEAN_MOTION_DDOT":0},{"OBJECT_NAME":"CP8 (IPEX)","OBJECT_ID":"2013-072K","EPOCH":"2026-03-09T13:09:38.394720","MEAN_MOTION":15.06461805,"ECCENTRICITY":0.0159394,"INCLINATION":120.4656,"RA_OF_ASC_NODE":280.3913,"ARG_OF_PERICENTER":252.2911,"MEAN_ANOMALY":106.0698,"EPHEMERIS_TYPE":0,"CLASSIFICATION_TYPE":"U","NORAD_CAT_ID":39471,"ELEMENT_SET_NO":999,"REV_AT_EPOCH":10021,"BSTAR":0.00057825,"MEAN_MOTION_DOT":0.0001114,"MEAN_MOTION_DDOT":0}]
